{
  "norad_id": 51889,
  "name": "STARLINK-3547",
  "history": [
    {
      "epoch": "2026-03-28T21:23:18.390048Z",
      "apogee_km": 540.7193817782545,
      "perigee_km": 538.7215045486691,
      "latitude_deg": 2.7388934007951113e-05,
      "longitude_deg": 125.79196715479667,
      "height_km": 540.511681468796,
      "semi_major_axis_km": 6917.8574431634615,
      "eccentricity": 0.0001444,
      "inclination_deg": 53.2163,
      "raan_deg": 272.9237,
      "arg_perigee_deg": 84.0099,
      "mean_anomaly_deg": 276.1058,
      "mean_motion_rev_day": 15.08847507
    }
  ]
}