{"fetched_at":"2026-03-29T16:36:15Z","count":15609,"tles":[{"name":"STARLINK-3547","line1":"1 51889U 22022AP  26087.89118507  .00000365  00000+0  41034-4 0  9990","line2":"2 51889  53.2163 272.9237 0001444  84.0099 276.1058 15.08847507226147","category":"Starlink"}]}